KUIPER-00044            
1 64505U 25134F   25218.02013138 -.00070731  00000+0 -37406-2 0  9992
2 64505  51.8749 123.3754 0013480 262.0076  97.9372 15.15103595  7908
KUIPER-00046            
1 64506U 25134G   25219.58335648 -.01133668  00000+0 -61029-1 0  9995
2 64506  51.8731 114.9438 0009312 284.3415 170.0152 15.17127881  5002
KUIPER-00047            
1 64507U 25134H   25219.00981799  .00018821  00000+0  56324-3 0  9991
2 64507  51.8629 116.5401 0009814 286.0596  73.9309 15.34531727  8086
KUIPER-00048            
1 64508U 25134J   25219.40768987  .00029732  00000+0  82674-3 0  9998
2 64508  51.8758 114.0225 0003066 262.8477  97.2161 15.36598728  8159
KUIPER-00049            
1 64509U 25134K   25219.43414471  .00024585  00000+0  70425-3 0  9990
2 64509  51.8737 114.1759 0006712 268.3467  91.6750 15.35760054  8155
KUIPER-00050            
1 64510U 25134L   25219.44094623  .00024187  00000+0  70316-3 0  9993
2 64510  51.8734 114.2234 0007144 261.5930  98.4246 15.35302795  8152
KUIPER-00051            
1 64511U 25134M   25219.42705457  .00024132  00000+0  69160-3 0  9991
2 64511  51.8745 114.1398 0005108 260.3061  99.7348 15.35764905  8157
KUIPER-00052            
1 64512U 25134N   25219.58335648  .00018153  00000+0  28950-3 0  9998
2 64512  51.8768 112.1057 0004003 293.4295 121.1623 15.53287473  5380
